*******************************************************************************
Ephemeris / WWW_USER Mon Mar 10 06:37:38 2025 Pasadena, USA      / Horizons    
*******************************************************************************
Target body name: (2018 UG3)                      {source: JPL#15}
Center body name: Earth (399)                     {source: DE441}
Center-site name: Mauna Kea
*******************************************************************************
Start time      : A.D. 2018-Aug-04 05:07:00.0000 UT      
Stop  time      : A.D. 2018-Aug-04 15:49:00.0000 UT      
Step-size       : 1 minutes
*******************************************************************************
Target pole/equ : undefined
Target radii    : undefined                                                    
Center geodetic : 204.5278, 19.8260847, 4.21024   {E-lon(deg),Lat(deg),Alt(km)}
Center cylindric: 204.5278, 6006.35451, 2151.0229 {E-lon(deg),Dxy(km),Dz(km)}
Center pole/equ : ITRF93                          {East-longitude positive}
Center radii    : 6378.137, 6378.137, 6356.752 km {Equator_a, b, pole_c}       
Target primary  : Sun
Vis. interferer : MOON (R_eq= 1737.400) km        {source: DE441}
Rel. light bend : Sun                             {source: DE441}
Rel. lght bnd GM: 1.3271E+11 km^3/s^2                                          
Small-body perts: Yes                             {source: SB441-N16}
Atmos refraction: NO (AIRLESS)
RA format       : HMS
Time format     : CAL 
Calendar mode   : Mixed Julian/Gregorian
RTS-only print  : NO       
EOP file        : eop.250307.p250603                                           
EOP coverage    : DATA-BASED 1962-JAN-20 TO 2025-MAR-07. PREDICTS-> 2025-JUN-02
Units conversion: 1 au= 149597870.700 km, c= 299792.458 km/s, 1 day= 86400.0 s 
Table cut-offs 1: Elevation (-90.0deg=NO ),Airmass (>38.000=NO), Daylight (YES)
Table cut-offs 2: Solar elongation (  0.0,180.0=NO ),Local Hour Angle( 0.0=NO )
Table cut-offs 3: RA/DEC angular rate (     0.0=NO )                           
*******************************************************************************
Initial IAU76/J2000 heliocentric ecliptic osculating elements (au, days, deg.):
  EPOCH=  2458429.5 ! 2018-Nov-07.00 (TDB)         Residual RMS= .46194        
   EC= .4227384440318329   QR= .9585039390071354   TP= 2458393.2526467689      
   OM= 47.27406359171053   W=  314.2704472892426   IN= 6.159551265235018       
  Equivalent ICRF heliocentric cartesian coordinates (au, au/d):
   X= 7.430529944075828E-01  Y= 6.714692173902916E-01  Z= 2.851295671149762E-01
  VX=-1.040372162305418E-02 VY= 1.447630012002514E-02 VZ= 8.505235531163944E-03
Asteroid physical parameters (km, seconds, rotational period in hours):        
   GM= n.a.                RAD= n.a.               ROTPER= n.a.                
   H= 24.5                 G= .150                 B-V= n.a.                   
                           ALBEDO= n.a.            STYP= n.a.                  
*******************************************************************************
 Date__(UT)__HR:MN     R.A._________(ICRF)_________DEC
******************************************************
$$SOE
 2018-Aug-04 11:16  m  15 27 32.702958 -40 26 49.38056
 2018-Aug-04 11:17  m  15 27 32.679460 -40 26 49.52141
 2018-Aug-04 11:18  m  15 27 32.656008 -40 26 49.66229
 2018-Aug-04 11:19  m  15 27 32.632600 -40 26 49.80321
 2018-Aug-04 11:20  m  15 27 32.609237 -40 26 49.94416
 2018-Aug-04 11:21  m  15 27 32.585919 -40 26 50.08514
 2018-Aug-04 11:22  m  15 27 32.562645 -40 26 50.22616
 2018-Aug-04 11:23  m  15 27 32.539417 -40 26 50.36721
 2018-Aug-04 11:24  m  15 27 32.516233 -40 26 50.50830
 2018-Aug-04 11:25  m  15 27 32.493094 -40 26 50.64944
 2018-Aug-04 11:26  m  15 27 32.469999 -40 26 50.79061
 2018-Aug-04 11:27  m  15 27 32.446950 -40 26 50.93183
 2018-Aug-04 11:28  m  15 27 32.423945 -40 26 51.07309
 2018-Aug-04 11:29  m  15 27 32.400985 -40 26 51.21440
 2018-Aug-04 11:30  m  15 27 32.378069 -40 26 51.35576
 2018-Aug-04 11:31  m  15 27 32.355198 -40 26 51.49716
 2018-Aug-04 11:32  m  15 27 32.332372 -40 26 51.63861
 2018-Aug-04 11:33  m  15 27 32.309590 -40 26 51.78012
 2018-Aug-04 11:34  m  15 27 32.286853 -40 26 51.92168
 2018-Aug-04 11:35  m  15 27 32.264160 -40 26 52.06329
 2018-Aug-04 11:36  m  15 27 32.241512 -40 26 52.20495
 2018-Aug-04 11:37  m  15 27 32.218908 -40 26 52.34668
 2018-Aug-04 11:38  m  15 27 32.196349 -40 26 52.48846
 2018-Aug-04 11:39  m  15 27 32.173834 -40 26 52.63030
 2018-Aug-04 11:40  m  15 27 32.151364 -40 26 52.77220
 2018-Aug-04 11:41  m  15 27 32.128937 -40 26 52.91416
 2018-Aug-04 11:42  m  15 27 32.106555 -40 26 53.05619
 2018-Aug-04 11:43  m  15 27 32.084218 -40 26 53.19828
 2018-Aug-04 11:44  m  15 27 32.061924 -40 26 53.34044
 2018-Aug-04 11:45  m  15 27 32.039675 -40 26 53.48266
 2018-Aug-04 11:46  m  15 27 32.017470 -40 26 53.62496
 2018-Aug-04 11:47  m  15 27 31.995309 -40 26 53.76732
 2018-Aug-04 11:48  m  15 27 31.973192 -40 26 53.90976
 2018-Aug-04 11:49  m  15 27 31.951119 -40 26 54.05227
 2018-Aug-04 11:50  m  15 27 31.929090 -40 26 54.19485
 2018-Aug-04 11:51  m  15 27 31.907105 -40 26 54.33751
 2018-Aug-04 11:52  m  15 27 31.885164 -40 26 54.48025
 2018-Aug-04 11:53  m  15 27 31.863267 -40 26 54.62306
 2018-Aug-04 11:54  m  15 27 31.841414 -40 26 54.76596
 2018-Aug-04 11:55  m  15 27 31.819604 -40 26 54.90894
 2018-Aug-04 11:56  m  15 27 31.797839 -40 26 55.05199
 2018-Aug-04 11:57  m  15 27 31.776117 -40 26 55.19514
 2018-Aug-04 11:58  m  15 27 31.754438 -40 26 55.33837
 2018-Aug-04 11:59  m  15 27 31.732803 -40 26 55.48168
 2018-Aug-04 12:00  m  15 27 31.711212 -40 26 55.62508
 2018-Aug-04 12:01  m  15 27 31.689664 -40 26 55.76858
 2018-Aug-04 12:02  m  15 27 31.668160 -40 26 55.91216
 2018-Aug-04 12:03  m  15 27 31.646699 -40 26 56.05583
 2018-Aug-04 12:04  m  15 27 31.625281 -40 26 56.19960
 2018-Aug-04 12:05  m  15 27 31.603907 -40 26 56.34346
 2018-Aug-04 12:06  m  15 27 31.582576 -40 26 56.48742
 2018-Aug-04 12:07  m  15 27 31.561288 -40 26 56.63148
 2018-Aug-04 12:08  m  15 27 31.540043 -40 26 56.77563
 2018-Aug-04 12:09  m  15 27 31.518842 -40 26 56.91989
 2018-Aug-04 12:10  m  15 27 31.497683 -40 26 57.06424
 2018-Aug-04 12:11  m  15 27 31.476567 -40 26 57.20870
 2018-Aug-04 12:12  m  15 27 31.455494 -40 26 57.35326
 2018-Aug-04 12:13  m  15 27 31.434465 -40 26 57.49793
 2018-Aug-04 12:14  m  15 27 31.413477 -40 26 57.64271
 2018-Aug-04 12:15  m  15 27 31.392533 -40 26 57.78759
 2018-Aug-04 12:16  m  15 27 31.371631 -40 26 57.93258
 2018-Aug-04 12:17  m  15 27 31.350772 -40 26 58.07768
 2018-Aug-04 12:18  m  15 27 31.329955 -40 26 58.22290
 2018-Aug-04 12:19  m  15 27 31.309181 -40 26 58.36822
 2018-Aug-04 12:20  m  15 27 31.288450 -40 26 58.51367
 2018-Aug-04 12:21  m  15 27 31.267760 -40 26 58.65922
 2018-Aug-04 12:22  m  15 27 31.247113 -40 26 58.80490
 2018-Aug-04 12:23  m  15 27 31.226508 -40 26 58.95069
 2018-Aug-04 12:24  m  15 27 31.205946 -40 26 59.09660
 2018-Aug-04 12:25  m  15 27 31.185425 -40 26 59.24264
 2018-Aug-04 12:26  m  15 27 31.164947 -40 26 59.38879
 2018-Aug-04 12:27  m  15 27 31.144510 -40 26 59.53507
 2018-Aug-04 12:28  m  15 27 31.124115 -40 26 59.68148
 2018-Aug-04 12:29  m  15 27 31.103762 -40 26 59.82801
 2018-Aug-04 12:30  m  15 27 31.083451 -40 26 59.97467
 2018-Aug-04 12:31  m  15 27 31.063181 -40 27 00.12145
 2018-Aug-04 12:32  m  15 27 31.042953 -40 27 00.26837
 2018-Aug-04 12:33  m  15 27 31.022767 -40 27 00.41542
 2018-Aug-04 12:34  m  15 27 31.002622 -40 27 00.56260
 2018-Aug-04 12:35  m  15 27 30.982518 -40 27 00.70992
 2018-Aug-04 12:36  m  15 27 30.962456 -40 27 00.85737
 2018-Aug-04 12:37  m  15 27 30.942435 -40 27 01.00495
 2018-Aug-04 12:38  m  15 27 30.922455 -40 27 01.15268
 2018-Aug-04 12:39  m  15 27 30.902516 -40 27 01.30054
 2018-Aug-04 12:40  m  15 27 30.882618 -40 27 01.44854
 2018-Aug-04 12:41  m  15 27 30.862761 -40 27 01.59669
 2018-Aug-04 12:42  m  15 27 30.842944 -40 27 01.74498
 2018-Aug-04 12:43  m  15 27 30.823169 -40 27 01.89341
 2018-Aug-04 12:44  m  15 27 30.803434 -40 27 02.04198
 2018-Aug-04 12:45  m  15 27 30.783740 -40 27 02.19071
 2018-Aug-04 12:46  m  15 27 30.764086 -40 27 02.33958
 2018-Aug-04 12:47  m  15 27 30.744472 -40 27 02.48860
 2018-Aug-04 12:48  m  15 27 30.724899 -40 27 02.63777
 2018-Aug-04 12:49  m  15 27 30.705366 -40 27 02.78709
 2018-Aug-04 12:50  m  15 27 30.685873 -40 27 02.93656
 2018-Aug-04 12:51  m  15 27 30.666421 -40 27 03.08619
 2018-Aug-04 12:52  m  15 27 30.647008 -40 27 03.23598
 2018-Aug-04 12:53  m  15 27 30.627635 -40 27 03.38592
 2018-Aug-04 12:54  m  15 27 30.608302 -40 27 03.53601
 2018-Aug-04 12:55  m  15 27 30.589009 -40 27 03.68627
 2018-Aug-04 12:56  m  15 27 30.569755 -40 27 03.83669
 2018-Aug-04 12:57  m  15 27 30.550541 -40 27 03.98726
 2018-Aug-04 12:58  m  15 27 30.531366 -40 27 04.13800
 2018-Aug-04 12:59  m  15 27 30.512230 -40 27 04.28891
 2018-Aug-04 13:00  m  15 27 30.493134 -40 27 04.43998
 2018-Aug-04 13:01  m  15 27 30.474077 -40 27 04.59121
 2018-Aug-04 13:02  m  15 27 30.455059 -40 27 04.74261
 2018-Aug-04 13:03  m  15 27 30.436080 -40 27 04.89418
 2018-Aug-04 13:04  m  15 27 30.417139 -40 27 05.04592
 2018-Aug-04 13:05  m  15 27 30.398238 -40 27 05.19783
 2018-Aug-04 13:06  m  15 27 30.379375 -40 27 05.34992
 2018-Aug-04 13:07  m  15 27 30.360551 -40 27 05.50217
 2018-Aug-04 13:08  m  15 27 30.341765 -40 27 05.65460
 2018-Aug-04 13:09  m  15 27 30.323017 -40 27 05.80721
 2018-Aug-04 13:10  m  15 27 30.304308 -40 27 05.95999
 2018-Aug-04 13:11  m  15 27 30.285637 -40 27 06.11295
 2018-Aug-04 13:12  m  15 27 30.267004 -40 27 06.26609
 2018-Aug-04 13:13  m  15 27 30.248409 -40 27 06.41941
 2018-Aug-04 13:14  m  15 27 30.229852 -40 27 06.57292
 2018-Aug-04 13:15  m  15 27 30.211332 -40 27 06.72660
 2018-Aug-04 13:16  m  15 27 30.192850 -40 27 06.88047
 2018-Aug-04 13:17  m  15 27 30.174406 -40 27 07.03452
 2018-Aug-04 13:18  m  15 27 30.155999 -40 27 07.18876
